id,code,description,city,city_eng,street,area,zip,building,latitude,longitude
14945,POP-WRO103,SKALA,Wrocław,wroclaw,Kościuszki,dolnośląskie,50-011,49,51.10205,17.03539
14946,POP-WRO111,VAPE SHOP,Wrocław,wroclaw,Wesoła,dolnośląskie,50-535,40,51.09081,17.03868
14947,POP-WRO112,VAPE SHOP,Wrocław,wroclaw,Jedności Narodowej,dolnośląskie,50-258,54,51.11867,17.03839
14948,POP-WRO114,SKLEP PAPIERNICZY PROPEC,Wrocław,wroclaw,Piotra Norblina,dolnośląskie,51-664,36,51.1029159,17.1096245
14949,POP-WRO120,SKLEP PAPIERNICZY TOPOFFICE,Wrocław ,wroclaw,Komandorska ,dolnośląskie,53-344,147,51.09318,17.02534
14950,POP-WRO123,BRICOMARCHE,Wrocław ,wroclaw,Królewiecka,dolnośląskie,54-117,72,51.15722,16.92233
14951,POP-WRO124,FURGONETKA,Wrocław ,wroclaw,Kniaziewicza,dolnośląskie,50-454,5A,51.10204051216,17.040734359117
14952,POP-WRO126,AGENCJA OPŁAT,Wrocław,wroclaw,Kozia,dolnośląskie,54-104,3A,51.158541725621,16.927707050152
14953,POP-WRO128,DORABIANIE KLUCZY SEBKEY,Wrocław,wroclaw,Buforowa,dolnośląskie,52-131,100,51.050905103165,17.059692859043
14954,POP-WRO133,ARNO DORABIANIE KLUCZY(TARASY GRABISZYŃSKIE),Wrocław,wroclaw,Grabiszyńska,dolnośląskie,53-110,240,51.09435,16.98156
14955,POP-WRO134,SKLEP SPOŻYWCZY ,Wrocław ,wroclaw,Balzaka,dolnośląskie,52-437,95 A,51.077856362666,16.956937219984
14956,POP-WRO135,SKLEP PAPIERNICZY EMA,Wrocław,wroclaw,Słowicza,dolnośląskie,53-320,17,51.08812,17.00822
14957,POP-WRO141,SERWIS FIXER,Wrocław ,wroclaw,Piłsudskiego ,dolnośląskie,50-032,46,51.101790597884,17.027980853394
14958,POP-WRO144,SKLEP U POLAKÓW,Wrocław,wroclaw,Jerzmanowska,dolnośląskie,54-530,102,51.12043,16.87299
14959,POP-WRO145,AGENCJA OPŁAT EXPERT (STOISKO 75),Wrocław,wroclaw,Świeradowska,dolnośląskie,50-559,70,51.077347075252,17.047798682936
14960,POP-WRO146,MAIL BOXES ETC. ,Wrocław,wroclaw,Dokerska,dolnośląskie,54-142,7C,51.1391,16.96571
14961,POP-WRO147,BARBERCOMPANY SKLEP,Wrocław,wroclaw,Tęczowa,dolnośląskie,53-601,25,51.10619,17.01664
14962,POP-WRO148,VISVITALIS ZDROWA ŻYWNOŚĆ,Wrocław,wroclaw,Trawowa,dolnośląskie,54-614,55A,51.0996102,16.9508281
14963,POP-WRO151,EUROSPAR C.H. FERIO GAJ,Wrocław,wroclaw,Świeradowska,dolnośląskie,50-559,51-57,51.07638,17.04233
14964,POP-WRO152,EUROSPAR C.H. FAMILY POINT,Wrocław,wroclaw,Krakowska,dolnośląskie,50-424,51/69,51.09071,17.06247
14965,POP-WRO153,EUROSPAR C.H. ARKADY,Wrocław,wroclaw,Powstańców Śląskich,dolnośląskie,53-333,2-4,51.09914,17.02838
14966,POP-WRO154,NETTO,Wrocław,wroclaw,Kiełczowska,dolnośląskie,51-315,42,51.14705,17.12378
14967,POP-WRO155,NETTO,Wrocław,wroclaw,Nowodworska,dolnośląskie,54-433,17A,51.11487,16.96544
14968,POP-WRO156,NETTO,Wrocław,wroclaw,Stryjska,dolnośląskie,54-614,2,51.09736,16.95197
14969,POP-WRO159,SALONIK PRASOWY MÓJ KIOSK,Wrocław ,wroclaw,Olszewskiego,dolnośląskie,51-644,128,51.10155,17.1092
14970,POP-WRO160,SKLEP PETICO,Wrocław,wroclaw,Warmińska,dolnośląskie,54-110,20,51.14697,16.94129
14971,POP-WRO162,STACJA CIRCLE K,Wrocław ,wroclaw,Dmowskiego ,dolnośląskie,50-203,5,51.11715,17.02137
14972,POP-WRO164,STACJA CIRCLE K,Wrocław,wroclaw,Dyrekcyjna,dolnośląskie,50-086,30,51.09616,17.03986
14973,POP-WRO165,STACJA CIRCLE K,Wrocław ,wroclaw,Braniborska,dolnośląskie,53-680,84,51.11184,17.00619
14974,POP-WRO166,STACJA CIRCLE K,Wrocław ,wroclaw,Karkonoska,dolnośląskie,53-015,52,51.0624,17.00112
14975,POP-WRO167,SALONIK PRASOWY MÓJ KIOSK ,Wrocław ,wroclaw,Olszewskiego ,dolnośląskie,51-642,71,51.10173,17.10227
14976,POP-WRO168,SKLEP MOMAZU,Wrocław ,wroclaw,Małopolska ,dolnośląskie,54-032,36A,51.138940275043,16.89267036055
14977,POP-WRO169,SKLEP PRZYSTANEK,Wrocław,wroclaw,Zachodnia ,dolnośląskie,53-643,1K,51.1155,17.01586
14978,POP-WRO171,SKLEP SPOŻYWCZY BMB,Wrocław ,wroclaw,Czajkowskiego ,dolnośląskie,51-171,43B,51.13978847195,17.066082933002
14979,POP-WRO172,KIOSK ROMA,Wrocław ,wroclaw,Sienkiewicza ,dolnośląskie,50-347,144,51.11535,17.06651
14980,POP-WRO173,SKLEP POMADE FREAKS,Wrocław ,wroclaw,Jedności Narodowej,dolnośląskie,50-261,64,51.11938,17.03863
14981,POP-WRO174,SKLEP PAPIERNICZY KREDKA ,Wrocław ,wroclaw,Inflancka,dolnośląskie,51-354,4,51.14488,17.13204
14982,POP-WRO175,KIOSK W BIAŁYM PAWILONIE,Wrocław,wroclaw,Krynicka,dolnośląskie,50-555,1 PAW. 5,51.08238,17.04552
14983,POP-WRO177,UNILINK UBEZPIECZENIA ,Wrocław ,wroclaw,Dolnobrzeska,dolnośląskie,54-072,46F/LU2,51.150494813919,16.856994152069
14984,POP-WRO178,KSIĘGARNIA KWANT,Wrocław ,wroclaw,Prądzyńskiego ,dolnośląskie,50-434,4 LOK. 2,51.101328710503,17.051992993533
14985,POP-WRO180,JASNY GWINT,Wrocław ,wroclaw,Legnicka,dolnośląskie,53-671,21,51.11283,17.0171
14986,POP-WRO181,HAPPY PACK SKLEP ANIMATORA,Wrocław,wroclaw,Borowska,dolnośląskie,50-532,186 A,51.07755,17.03419
14987,POP-WRO182,DUŻY BEN,Wrocław,wroclaw,Litewska,dolnośląskie,51-354,14F,51.14227,17.13035
14988,POP-WRO183,DUŻY BEN,Wrocław ,wroclaw,Krzywoustego,dolnośląskie,51-310,319A,51.14675,17.11393
14989,POP-WRO184,DUŻY BEN,Wrocław,wroclaw,Wojaczka,dolnośląskie,51-169,1/1B,51.14663,17.07083
14990,POP-WRO185,DUŻY BEN,Wrocław,wroclaw,Kamieńskiego,dolnośląskie,51-001,213/U3,51.15462,17.0421
14991,POP-WRO186,DUŻY BEN,Wrocław,wroclaw,Polaka,dolnośląskie,50-379,"14, 14A, 14B   / U1",51.11162,17.05528
14992,POP-WRO187,DUŻY BEN,Wrocław,wroclaw,Bulwar Ikara,dolnośląskie,54-130,17/1C,51.12593,16.97099
14993,POP-WRO188,DUŻY BEN,Wrocław,wroclaw,Sienkiewicza ,dolnośląskie,50-346,131,51.11498,17.06679
14994,POP-WRO189,DUŻY BEN,Wrocław,wroclaw,Bacciarellego,dolnośląskie,51-649,8A/1,51.10466,17.11358
14995,POP-WRO190,DUŻY BEN,Wrocław ,wroclaw,Al. Architektów,dolnośląskie,54-115,14D,51.13632,16.92841
14996,POP-WRO191,DUŻY BEN,Wrocław,wroclaw,Legnicka,dolnośląskie,53-672,33A/U4,51.11901,16.99527
14997,POP-WRO192,DUŻY BEN,Wrocław ,wroclaw,Sienkiewicza,dolnośląskie,50-348,89,51.11601,17.0574
14998,POP-WRO193,DUŻY BEN,Wrocław,wroclaw,Vespucciego,dolnośląskie,51-505,26A,51.10682,17.1234
14999,POP-WRO194,DUŻY BEN,Wrocław ,wroclaw,Legnicka ,dolnośląskie,54-203,57J,51.1247,16.98789
15000,POP-WRO195,DUŻY BEN,Wrocław,wroclaw,Tęczowa,dolnośląskie,53-601,83A,51.10444,17.00709
15001,POP-WRO196,DUŻY BEN,Wrocław ,wroclaw,Popowicka,dolnośląskie,54-236,97,51.12936,16.98879
15002,POP-WRO197,DUŻY BEN,Wrocław,wroclaw,Magellana,dolnośląskie,51-505,24A,51.11122,17.12206
15003,POP-WRO198,DUŻY BEN,Wrocław,wroclaw,Wyszyńskiego,dolnośląskie,50-330,45D,51.11752,17.05161
15004,POP-WRO199,DUŻY BEN,Wrocław,wroclaw,Prusa,dolnośląskie,50-319,21,51.11963,17.0493
15005,POP-WRO200,DUŻY BEN,Wrocław,wroclaw,Dziadoszańska,dolnośląskie,54-153,50A,51.13663,16.97985
15006,POP-WRO201,DUŻY BEN,Wrocław,wroclaw,Kościuszki,dolnośląskie,50-442,83-89/ U6,51.10108,17.04013
15007,POP-WRO202,DUŻY BEN,Wrocław,wroclaw,Wałbrzyska,dolnośląskie,53-235,3 B,51.06364,16.98387
15008,POP-WRO203,DUŻY BEN,Wrocław ,wroclaw,Krawiecka,dolnośląskie,50-148,3D,51.10885,17.03771
15009,POP-WRO204,DUŻY BEN,Wrocław,wroclaw,Powstańców Śląskich,dolnośląskie,53-317,139/1B,51.08734,17.01541
15010,POP-WRO205,DUŻY BEN,Wrocław ,wroclaw,Kilińskiego,dolnośląskie,50-263,31,51.11942,17.03963
15011,POP-WRO206,DUŻY BEN,Wrocław,wroclaw,Traugutta,dolnośląskie,50-418,78B/U2,51.10286,17.05115
15012,POP-WRO207,DUŻY BEN,Wrocław ,wroclaw,Dubois,dolnośląskie,50-208,4,51.11691,17.03292
15013,POP-WRO208,DUŻY BEN,Wrocław ,wroclaw,Kukuczki,dolnośląskie,50-017,7/U2,51.07201,17.03953
15014,POP-WRO209,DUŻY BEN,Wrocław,wroclaw,Traugutta ,dolnośląskie,50-419,107/1A,51.10045,17.05335
15015,POP-WRO210,DUŻY BEN,Wrocław,wroclaw,Pomorska,dolnośląskie,50-219,44B,51.12129,17.03109
15016,POP-WRO211,DUŻY BEN,Wrocław,wroclaw,Więckowskiego,dolnośląskie,50-431,16/I1C,51.09842,17.05308
15017,POP-WRO212,DUŻY BEN,Wrocław,wroclaw,Pereca,dolnośląskie,53-444,12,51.09979,17.008
15018,POP-WRO213,DUŻY BEN,Wrocław,wroclaw,Jedności Narodowej,dolnośląskie,50-302,242A,51.12933,17.05405
15019,POP-WRO214,DUŻY BEN,Wrocław,wroclaw,Nyska,dolnośląskie,50-505,69,51.08458,17.05279
15020,POP-WRO215,DUŻY BEN,Wrocław,wroclaw,Zakładowa,dolnośląskie,50-231,20E,51.13085,17.0442
15021,POP-WRO216,DUŻY BEN,Wrocław,wroclaw,Żeromskiego,dolnośląskie,50-312,53,51.12345,17.0481
15022,POP-WRO217,DUŻY BEN,Wrocław,wroclaw,Hubska,dolnośląskie,50-502,78 B,51.09004,17.04521
15023,POP-WRO218,DUŻY BEN,Wrocław ,wroclaw,Gajowa,dolnośląskie,50-520,25,51.09196,17.0403
15024,POP-WRO219,DUŻY BEN,Wrocław ,wroclaw,Piłsudskiego,dolnośląskie,50-017,96/1A,51.100193851263,17.035358334625
15025,POP-WRO220,SZYBKIE ZAKUPY,Wrocław,wroclaw,Wincentego Stysia,dolnośląskie,53-525,41,51.099574966549,17.018596106426
15026,POP-WRO221,DUŻY BEN,Wrocław,wroclaw,Wojanowska,dolnośląskie,54-050,5,51.15457,16.89904
15027,POP-WRO222,DUŻY BEN,Wrocław,wroclaw,Kościuszki,dolnośląskie,50-439,122B,51.09978,17.04631
15028,POP-WRO223,DUŻY BEN,Wrocław,wroclaw,Tęczowa,dolnośląskie,53-602,22,51.10675,17.01907
15029,POP-WRO224,DUŻY BEN,Wrocław,wroclaw,Stalowa,dolnośląskie,53-440,63/LU1B,51.10157,17.00014
15030,POP-WRO225,DUŻY BEN,Wrocław,wroclaw,Grabiszyńska,dolnośląskie,53-236,287,51.09431,16.97829
15031,POP-WRO227,"PUNKT OPŁAT, KSERO, PIECZĄTKI",Wrocław,wroclaw,Kotlarska,dolnośląskie,50-150,2A,51.111461003621,17.034496307373
15032,POP-WRO228,HAPPY PACK-SKLEP ZE ZDROWĄ ŻYWNOŚCIĄ,Wrocław,wroclaw,Żelazna,dolnośląskie,53-428,52,51.098754021302,17.005826130283
15033,POP-WRO229,HAPPY PACK-SKLEP Z BALONAMI,Wrocław,wroclaw,Cukrowa,dolnośląskie,52-316,13/20,51.063147226969,16.978410720825
15034,POP-WRO230,SERWIS FREZAREK,Wrocław,wroclaw,Kościuszki,dolnośląskie,50-439,152B,51.099250510802,17.049768107717
15035,POP-WRO231,HAPPY PACK-CENTRUM WYSYŁEK,Wrocław,wroclaw,Świeradowska,dolnośląskie,50-559,47 B,51.076742891432,17.040212558844
15036,POP-WRO232,A-HOBBY ELEKTRONIK,Wrocław,wroclaw,Krasińskiego,dolnośląskie,50-450,32,51.10619,17.0436
15037,POP-WRO25,FIRMA HANDLOWA BAKARD,Wrocław,wroclaw,Boguszowska,dolnośląskie,54-046,82,51.150467,16.892196
15038,POP-WRO30,SALONIK PRASOWY,Wrocław,wroclaw,Główna,dolnośląskie,54-061,69,51.16102,16.90586
15039,POP-WRO47,MBE MAIL BOX,Wrocław,wroclaw,Krakowska,dolnośląskie,50-428,141/155,51.08253,17.07546
15040,POP-WRO60,KWIACIARNIA,Wrocław,wroclaw,Bajana,dolnośląskie,54-129,43/1F,51.12764,16.96183
15041,POP-WRO85,MAIL BOXES,Wrocław,wroclaw,Jedności Narodowej,dolnośląskie,50-262,79,51.12068,17.04194
15042,POP-WRO95,SKLEP SPOŻYWCZO PRZEMYSŁOWY,Wrocław,wroclaw,Balzaka,dolnośląskie,52-437,22A,51.07643,16.95967
15043,POP-WRP95,EUROSPAR SKY TOWER,Wrocław,wroclaw,Powstańców Śląskich,dolnośląskie,53-332,95,51.09462,17.02068
21786,WRO01APP,Obok kawiarni,Wrocław,wroclaw,Kominiarska,dolnośląskie,51-180,97,51.17714,17.01551
21787,WRO01F,Przy Vege Boxie,Wrocław,wroclaw,Bierutowska,dolnośląskie,51-317,57-59,51.15118,17.12698
21788,WRO01H,W lokalu użytkowym,Wrocław,wroclaw,Grabiszyńska,dolnośląskie,53-437,141,51.09972,17.00039
21789,WRO01HO,"W środku Hali Targowej, obok sklepu rybnego ""Tradycja i Jakość""",Wrocław,wroclaw,Piaskowa,dolnośląskie,50-158,17,51.1123,17.04064
21790,WRO01HP,W sklepie Duży Ben,Wrocław,wroclaw,Sienkiewicza,dolnośląskie,50-346,131,51.11498,17.06679
21791,WRO01L,Stacja paliw BP,Wrocław,wroclaw,Krakowska,dolnośląskie,50-425,6/7,51.09574,17.0562
21792,WRO01M,Po lewej stronie od wejścia do budynku stacji paliw Pieprzyk,Wrocław,wroclaw,Armii Krajowej,dolnośląskie,50-541,49,51.0828,17.0596
21793,WRO01W,Po prawej stronie od wejścia do hali kupców Perła,Wrocław,wroclaw,Widna,dolnośląskie,50-543,6,51.08336,17.04491
21794,WRO02A,Stacja paliw Shell,Wrocław,wroclaw,Ślężna,dolnośląskie,53-111,144,51.07949,17.02101
21795,WRO02B,Stacja paliw AMIC ENERGY,Wrocław,wroclaw,Toruńska,dolnośląskie,51-414,73,51.13063,17.07807
21796,WRO02H,lokal wejscie od ulicy Wszystkich Świetych,Wrocław,wroclaw,Wszystkich Świętych,dolnośląskie,50-136,13,51.11204,17.0242
21797,WRO02HO,"Przy głównym wejściu, obok apteki",Wrocław,wroclaw,Powstańców Śląskich,dolnośląskie,53-332,96,51.09392,17.01903
21798,WRO02HP,W sklepie Duży Ben,Wrocław,wroclaw,Więckowskiego,dolnośląskie,50-431,16,51.09842,17.05308
21799,WRO02L,Przy stacji paliw Shell,Wrocław,wroclaw,Brucknera,dolnośląskie,51-411,53-55,51.13825,17.08227
21800,WRO02M,Po prawej stronie za wjazdem na parking,Wrocław,wroclaw,Żółta,dolnośląskie,54-043,1,51.14518,16.88285
21801,WRO02N,Przy sklepie Społem Południe,Wrocław,wroclaw,Pilczycka,dolnośląskie,54-150,140,51.1406,16.95811
21802,WRO02W,Myjnia bezdotykowa 24h,Wrocław,wroclaw,Miłoszycka,dolnośląskie,51-502,97,51.12221,17.12093
21803,WRO03A,Stacja paliw Shell,Wrocław,wroclaw,Obornicka,dolnośląskie,51-114,64,51.1387,17.02821
21804,WRO03APP,Na rogu ulic Okulickiego/Odrodzenia Polski,Wrocław,wroclaw,Okulickiego 29,dolnośląskie,51-216,Wrocław,51.16386,17.12619
21805,WRO03B,Stacji paliw BP,Wrocław,wroclaw,al. Karkonoska,dolnośląskie,53-015,63,51.06093,16.99374
21806,WRO03H,Lokal użytkowy,Wrocław,wroclaw,Słubicka,dolnośląskie,53-615,20,51.11846,17.00063
21807,WRO03HO,"Poziom -1 przy wyjściu z parkingu ,koło sklepu Action",Wrocław,wroclaw,Powstańców Śląskich,dolnośląskie,53-333,2-4,51.0995,17.02893
21808,WRO03HP,W sklepie Duży Ben,Wrocław,wroclaw,Ameriga Vespucciego,dolnośląskie,51-505,26A,51.10704,17.12325
21809,WRO03L,Stacja paliw Shell,Wrocław,wroclaw,Żmigrodzka,dolnośląskie,51-130,105/117,51.14412,17.03228
21810,WRO03W,Przy Centrum Handlowym Galaktyka od ulicy Wiktora Brossa,Wrocław,wroclaw,Ślężna,dolnośląskie,53-111,130-134,51.08029,17.02303
21811,WRO04A,Przy MSM Energetyk,Wrocław,wroclaw,Gajowicka,dolnośląskie,53-150,177,51.08542,17.00402
21812,WRO04APP,Przy parkingu samochodowym,Wrocław,wroclaw,Celtycka,dolnośląskie,54-153,5,51.13796,16.97967
21813,WRO04H,W lokalu użytkowym,Wrocław,wroclaw,Nowowiejska,dolnośląskie,50-314,26,51.12396,17.04799
21814,WRO04HO,"Pasaż z parkingu +1, CH Magnolia",Wrocław,wroclaw,Legnicka,dolnośląskie,54-204,58,51.11853,16.98921
21815,WRO04HP,W sklepie Duży Ben,Wrocław,wroclaw,Pereca,dolnośląskie,53-444,12,51.09979,17.008
21816,WRO04L,Stacja paliw Shell,Wrocław,wroclaw,Gubińska,dolnośląskie,54-434,6,51.11336,16.95821
21817,WRO04M,Na terenie biurowca Kaufland od ulicy Ziębickiej PN-SB 6:00-19:30,Wrocław,wroclaw,al. Armii Krajowej,dolnośląskie,50-541,47,51.08195,17.05384
21818,WRO04N,Stacja paliw Lotos,Wrocław,wroclaw,Trzebnicka,dolnośląskie,50-231,39,51.13039,17.03755
21819,WRO04W,Po prawej stronie od wejścia do supermarketu,Wrocław,wroclaw,Hermanowska,dolnośląskie,54-314,59,51.1244,16.95
21820,WRO05A,Przy SM Energetyk,Wrocław,wroclaw,Sokola,dolnośląskie,53-150,49,51.08252,17.0076
21821,WRO05B,Przy sklepie Społem Północ,Wrocław,wroclaw,Osobowicka,dolnośląskie,51-004,133,51.14388,16.98787
21822,WRO05H,W lokalu,Wrocław,wroclaw,Śrutowa,dolnośląskie,50-257,6,51.11763,17.03405
21823,WRO05HO,CH RENOMA poziom handlowy -1 koło Kantoru,Wrocław,wroclaw,Świdnicka,dolnośląskie,50-024,40,51.1037,17.03153
21824,WRO05HP,W sklepie Duży Ben,Wrocław,wroclaw,Architektów,dolnośląskie,54-115,14D,51.13632,16.92841
21825,WRO05M,Na terenie myjni,Wrocław,wroclaw,Małopanewska,dolnośląskie,54-217,13,51.12194,16.98589
21826,WRO05N,Przy markecie Kaufland,Wrocław,wroclaw,Ślężna,dolnośląskie,53-302,44/46,51.09284,17.03076
21827,WRO05W,Przy cukierni JS Jaworscy,Wrocław,wroclaw,Świstackiego,dolnośląskie,50-430,5,51.0984,17.05048
21828,WRO06A,Przy pasażu handlowym Czerwona Torebka,Wrocław,wroclaw,Kiełczowska,dolnośląskie,51-315,60,51.14621,17.13341
21829,WRO06APP,Przy wyjeździe z dziedzińca,Wrocław,wroclaw,Plac Grunwaldzki,dolnośląskie,50-365,23,51.11096,17.06192
21830,WRO06B,Przy sklepie Społem,Wrocław,wroclaw,Kraszewskiego,dolnośląskie,50-229,21,51.12898,17.03302
21831,WRO06H,W lokalu,Wrocław,wroclaw,Buforowa,dolnośląskie,52-131,49,51.06052,17.05547
21832,WRO06HO,Na poziomie -1 przy wejściu do toalet,Wrocław,wroclaw,Plac Dominikański,dolnośląskie,50-159,3,51.108,17.04041
21833,WRO06HP,W sklepie Duży Ben,Wrocław,wroclaw,Benedykta Polaka,dolnośląskie,50-379,14,51.11196,17.05504
21834,WRO06L,Przy SM Południe,Wrocław,wroclaw,Borowska,dolnośląskie,50-566,114,51.08526,17.03609
21835,WRO06M,Po prawej stronie od wejścia do apteki Millenium,Wrocław,wroclaw,Fromborska,dolnośląskie,54-111,47,51.1497,16.943
21836,WRO06N,Przy Centrum Handlowym Arena,Wrocław,wroclaw,Komandorska,dolnośląskie,53-343,66,51.09488,17.02832
21837,WRO06W,Przy sklepie spożywczym,Wrocław,wroclaw,Pełczyńska,dolnośląskie,51-180,63,51.16945,16.99722
21838,WRO07A,Przy stacji Shell,Wrocław,wroclaw,Krakowska,dolnośląskie,50-426,70/80,51.09191,17.063
21839,WRO07H,W lokalu użytkowym,Wrocław,wroclaw,Pigwowa,dolnośląskie,53-006,2,51.05885,17.01494
21840,WRO07HO,Przy kasach sklepu Społem,Wrocław,wroclaw,Szklarska,dolnośląskie,54-138,28,51.13323,16.95774
21841,WRO07HP,W sklepie Duży Ben,Wrocław,wroclaw,Dziadoszańska,dolnośląskie,54-153,50,51.13748,16.9797
21842,WRO07L,Budynek handlowy przy s.m. Południe,Wrocław,wroclaw,Widna,dolnośląskie,50-543,17,51.08505,17.0447
21843,WRO07M,Po prawej stronie od wejścia do Pasażu,Wrocław,wroclaw,Mińska,dolnośląskie,54-610,58A,51.1043,16.94649
21844,WRO07W,"Na terenie Osiedla, przy klatce numer 9",Wrocław,wroclaw,Pionierów,dolnośląskie,52-112,9,51.06723,17.08081
21845,WRO08A,Stacja paliw BP,Wrocław,wroclaw,Grabiszyńska,dolnośląskie,53-501,266,51.0939,16.979
21846,WRO08APP,Z prawej strony posesji,Wrocław,wroclaw,Ukraińska,dolnośląskie,54-401,8,51.111821933,16.962951435
21847,WRO08HP,W sklepie Duży Ben,Wrocław,wroclaw,Wojaczka,dolnośląskie,51-169,1/1B,51.14625,17.072378
21848,WRO08L,Przy siedziebie wspólnoty,Wrocław,wroclaw,Krynicka,dolnośląskie,50-555,4,51.08221,17.04642
21849,WRO08N,"Przy sklepie Stokrotka, przodem do parkingu.",Wrocław,wroclaw,Sielska,dolnośląskie,54-144,3,51.14021,16.96273
21850,WRO08W,Market Dino,Wrocław,wroclaw,Księgarska,dolnośląskie,51-180,2,51.17461,17.02228
21851,WRO09A,Przy galerii wnętrz DOMAR,Wrocław,wroclaw,Braniborska,dolnośląskie,53-680,14,51.11017,17.01523
21852,WRO09B,Przy osiedlowym sklepie Żabka,Wrocław,wroclaw,Okulickiego,dolnośląskie,51-212,19,51.16267,17.12523
21853,WRO09H,W lokalu,Wrocław,wroclaw,Orzechowa,dolnośląskie,50-540,108,51.07863,17.0451
21854,WRO09M,Na parkingu przy biurowcu,Wrocław,wroclaw,Strachocińska,dolnośląskie,51-511,53,51.10914,17.13844
21855,WRO09N,Przy Aptece Lege Artis,Wrocław,wroclaw,Grota-Roweckiego,dolnośląskie,52-232,76,51.06235,17.03271
21856,WRO09W,Przy wyjściu na podwórze,Wrocław,wroclaw,Bieńkowskiego,dolnośląskie,54-115,22,51.13485,16.92427
21857,WRO100M,Na osiedlu,Wrocław,wroclaw,Wielka,dolnośląskie,53-338,59,51.09161,17.02448
21858,WRO101M,Od ulicy Rękodzielniczej,Wrocław,wroclaw,Górnicza,dolnośląskie,54-150,48,51.1364,16.95729
21859,WRO103M,Przy parkingu obok Żabki.,Wrocław,wroclaw,Czekoladowa,dolnośląskie,52-326,58A,51.0594,16.974
21860,WRO104M,"Przy posesji prywatnej, na wprost bramki wejściowej.",Wrocław,wroclaw,Morelowskiego,dolnośląskie,52-429,18,51.0728,16.9708
21861,WRO105M,Na wjeździe do biurowca,Wrocław,wroclaw,Skargi,dolnośląskie,50-082,3,51.10623,17.03805
21862,WRO106M,Przy biurowcu,Wrocław,wroclaw,Borowska,dolnośląskie,50-558,272,51.07135,17.03374
21863,WRO107M,W ogrodzeniu parkingu od strony osiedla,Wrocław,wroclaw,Poleska,dolnośląskie,51-354,48,51.14336,17.12853
21864,WRO108M,Przy Lidlu,Wrocław,wroclaw,Strachocińska,dolnośląskie,51-518,180,51.10272,17.15796
21865,WRO109M,"Po lewej stronie budynku, przy chodniku",Wrocław,wroclaw,Fabryczna,dolnośląskie,53-609,29-31,51.1128,16.98121
21866,WRO10B,Przy Centrum Handlowyn Borek,Wrocław,wroclaw,al. Hallera,dolnośląskie,53-324,52,51.08927,16.9997
21867,WRO10H,W lokalu użytkowym,Wrocław,wroclaw,Klecińska,dolnośląskie,54-412,138,51.10624,16.96961
21868,WRO10L,Stacja paliw Shell,Wrocław,wroclaw,Kamienna,dolnośląskie,50-545,145,51.08545,17.04597
21869,WRO10M,Na terenie stacji paliw Lotos,Wrocław,wroclaw,Awicenny,dolnośląskie,52-405,47,51.08132,16.95607
21870,WRO10N,Przy sklepie spożywczym ABC,Wrocław,wroclaw,Mrągowska,dolnośląskie,54-107,4,51.15113,16.94066
21871,WRO10W,Przy siedzibie wspólnoty mieszkaniowej,Wrocław,wroclaw,Zemska,dolnośląskie,54-438,35,51.11635,16.94855
21872,WRO110M,Po prawej stronie od wejścia do sklepu,Wrocław,wroclaw,Górnośląska,dolnośląskie,52-019,2B,51.07435,17.08581
21873,WRO111M,Po prawej stronie od wjazdu,Wrocław,wroclaw,Wietrzna,dolnośląskie,53-024,10,51.07233,16.9976
21874,WRO112M,na parkingu Novotel Wrocław City,Wrocław,wroclaw,Wyścigowa,dolnośląskie,53-011,35,51.0692,17.00747
21875,WRO113M,Przy posesji,Wrocław,wroclaw,Karkonoska,dolnośląskie,53-015,31,51.0696,17.0047
21876,WRO114M,Po lewej stronie od wejścia do sklepu,Wrocław,wroclaw,Wielkopolska,dolnośląskie,54-027,19-21,51.1411,16.8859
21877,WRO115M,Po prawej stronie od wjazdu na teren LIDLa,Wrocław,wroclaw,Buforowa,dolnośląskie,52-131,5/9,51.0688,17.056
21878,WRO116M,Po lewej stronie od posesji,Wrocław,wroclaw,Kamiennogórska,dolnośląskie,54-034,5,51.1415,16.9
21879,WRO117M,Przy skrzyżowaniu ulic Rumiankowej i M. Przybyły.,Wrocław,wroclaw,Rumiankowa,dolnośląskie,54-512,74,51.1211,16.9164
21880,WRO118M,Na terenie wspólnoty mieszkaniowej GAJ,Wrocław,wroclaw,Strońska,dolnośląskie,50-538,22,51.07288,17.04112
21881,WRO11A,Stacja paliw Circle K,Wrocław,wroclaw,Braniborska,dolnośląskie,53-680,84,51.11164,17.00621
21882,WRO11B,Parking SM Księże Małe,Wrocław,wroclaw,Tarnogórska,dolnośląskie,52-021,1,51.0749962031,17.086201171
21883,WRO11L,Stacja paliw Shell,Wrocław,wroclaw,Mińska,dolnośląskie,54-610,41,51.10596,16.95048
21884,WRO11M,Przed sklepem Ride Now,Wrocław,wroclaw,Aleja Wiśniowa,dolnośląskie,53-137,3,51.08593,17.01304
21885,WRO11N,Przy Budoskładzie,Wrocław,wroclaw,Grota-Roweckiego,dolnośląskie,52-214,168,51.05219,17.03178
21886,WRO121M,Po lewej stronie od szlabanu,Wrocław,wroclaw,Powstańców Śląskich,dolnośląskie,53-138,185,51.08214,17.00876
21887,WRO122M,Przy wyjeżdzie z parkingu podziemnego Galerii i Hotelu,Wrocław,wroclaw,Pl. Dominikański,dolnośląskie,50-159,1,51.10892,17.03996
21888,WRO123M,Przy wjeździe na podwórze,Wrocław,wroclaw,Cybulskiego,dolnośląskie,50-206,7,51.1166,17.03233
21889,WRO124M,Na terenie osiedla,Wrocław,wroclaw,Zatorska,dolnośląskie,51-215,43,51.15935,17.13711
21890,WRO125M,Na terenie działki,Wrocław,wroclaw,Wandy Rutkiewicz,dolnośląskie,50-561,34,51.07329,17.03791
21891,WRO126M,Na osiedlu,Wrocław,wroclaw,Grudziądzka,dolnośląskie,51-165,103,51.13747,17.07848
21892,WRO127M,Na osiedlu,Wrocław,wroclaw,Zaułek Rogoziński,dolnośląskie,51-116,11A,51.14088,17.03062
21893,WRO128M,Przy siedzibie spółdzielni,Wrocław,wroclaw,Łódzka,dolnośląskie,50-523,19,51.09117,17.03752
21894,WRO12A,Przy Centrum Handlowym Astra,Wrocław,wroclaw,Horbaczewskiego,dolnośląskie,54-130,4-6,51.12652,16.9749
21895,WRO12B,Przy drogerii Rossmann,Wrocław,wroclaw,Kiełczowska,dolnośląskie,51-315,70,51.14592,17.13509
21896,WRO12M,Przy sklepie Black Red White,Wrocław,wroclaw,Czekoladowa,dolnośląskie,55-040,24,51.04832,16.96516
21897,WRO12N,Przy sklepie Żabka,Wrocław,wroclaw,Olszewskiego,dolnośląskie,51-631,17A,51.10304,17.09507
21898,WRO130M,Przy Żabce w Bramie,Wrocław,wroclaw,Pomorska,dolnośląskie,50-216,9,51.11684,17.03207
21899,WRO131M,Przy garażu podziemnym,Wrocław,wroclaw,Zielińskiego,dolnośląskie,53-533,59,51.0982,17.01986
21900,WRO132M,Na przeciwko biedronki,Wrocław,wroclaw,Sułowska,dolnośląskie,51-180,11A,51.16905,17.02543
21901,WRO133M,Przy budynku stacji Lotos,Wrocław,wroclaw,Pełczyńska,dolnośląskie,51-180,5/7,51.16071,17.00702
21902,WRO136M,Po prawej stronie od wejścia.,Wrocław,wroclaw,Mińska,dolnośląskie,54-610,36,51.1021,16.9434
21903,WRO137M,Przy ulicy Łomnickiej 12,Wrocław,wroclaw,Łomnicka,dolnośląskie,54-061,12,51.1608,16.9085
21904,WRO138M,Na rogu ulic Racławicka i Jastrzębia,Wrocław,wroclaw,Jastrzębia,dolnośląskie,53-148,14,51.08472,17.00763
21905,WRO139M,na osiedlu,Wrocław,wroclaw,Czerniawska,dolnośląskie,50-576,3,51.07635,17.0391
21907,WRO13B,przy skrzyżowaniu ulicy Starodębowej z Jeziorową,Wrocław,wroclaw,Jeziorowa,dolnośląskie,51-251,1,51.16606,17.10238
21908,WRO13L,Stacja paliw BP,Wrocław,wroclaw,pl. Grunwaldzki,dolnośląskie,50-337,34,51.11449,17.069
21909,WRO13M,Przy przedszkolu,Wrocław,wroclaw,Stoczniowa,dolnośląskie,51-218,12A,51.16283,17.13076
21910,WRO13N,Przy sklepie Marysieńka,Wrocław,wroclaw,Oleska,dolnośląskie,51-200,5,51.15957,17.13376
21911,WRO140M,Przy siedzibie TBS,Wrocław,wroclaw,Tylna,dolnośląskie,51-313,14,51.14582,17.11311
21912,WRO141M,Przy placu zabaw,Wrocław,wroclaw,Kamieńskiego,dolnośląskie,51-126,200,51.15497,17.04254
21913,WRO142M,Przy budynku 10A,Wrocław,wroclaw,Da Vinci,dolnośląskie,52-112,10A,51.06583,17.07733
21914,WRO143M,Przy parkingu,Wrocław,wroclaw,Rodzynkowa,dolnośląskie,54-054,2,51.15474,16.89407
21915,WRO144M,Przy warsztacie samochodowym,Wrocław,wroclaw,Żmigrodzka,dolnośląskie,51-130,75,51.14062,17.03265
21916,WRO145M,"Po lewej stronie budynku, przy przystanku.",Wrocław,wroclaw,Jeleniogórska,dolnośląskie,54-056,14,51.1463,16.8764
21917,WRO147M,Przed sklepem od ul. Fromborskiej.,Wrocław,wroclaw,Mrągowska,dolnośląskie,54-107,4,51.1511,16.9408
21918,WRO148M,Po lewej stronie od wjazdu na parking.,Wrocław,wroclaw,Sołtysowicka,dolnośląskie,51-168,62a,51.1507,17.0766
21919,WRO149M,Przy drodze.,Wrocław,wroclaw,Dożynkowa,dolnośląskie,52-311,9,51.0669,16.9825
21920,WRO14L,Stacja paliw BP,Wrocław,wroclaw,Kromera,dolnośląskie,51-163,16,51.13195,17.06256
21921,WRO14M,Po lewej od strony wejścia.,Wrocław,wroclaw,Na ostatnim groszu,dolnośląskie,54-207,98A,51.12138,16.97541
21922,WRO14N,Przy markecie Bricomarche,Wrocław,wroclaw,Królewiecka,dolnośląskie,54-117,68,51.15725,16.92255
21923,WRO151M,Przy klatce nr 63.,Wrocław,wroclaw,Pałucka,dolnośląskie,54-153,65,51.13762,16.97737
21924,WRO152M,Przy komisie samochodowym,Wrocław,wroclaw,Miłoszycka,dolnośląskie,51-502,11a,51.11586,17.12887
21925,WRO153M,Przy wejściu do budynku od Komandorskiej,Wrocław,wroclaw,Piłsudskiego,dolnośląskie,50-019,69/73,51.1007,17.03124
21926,WRO154M,Na rogu sienkiewicza/reja,Wrocław,wroclaw,Sienkiewicza,dolnośląskie,50-337,75,51.1159,17.05777
21927,WRO155M,Przy ulicy Reja,Wrocław,wroclaw,Reja,dolnośląskie,50-338,36,51.11689,17.05806
21928,WRO156M,Wjazd na myjnię,Wrocław,wroclaw,Pełczyńska,dolnośląskie,51-180,40,51.16603,16.9983
21929,WRO157M,Przy warsztacie samochodowym,Wrocław,wroclaw,Swojczycka,dolnośląskie,51-502,76,51.11353,17.1204
21930,WRO158M,Przy Szklarni,Wrocław,wroclaw,Nefrytowa,dolnośląskie,52-215,44,51.04877,17.02364
21931,WRO159M,Po lewej stronie od głównego wejścia do biurowca Cu Office,Wrocław,wroclaw,Jaworska,dolnośląskie,53-612,11-13,51.11581,16.99424
21932,WRO15A,Przy wejściu nr 1 do Pasażu Zielińskiego od strony ul.Zielińskiego,Wrocław,wroclaw,Swobodna,dolnośląskie,50-088,37,51.10064,17.02416
21933,WRO15L,Stacja paliw Shell,Wrocław,wroclaw,Małopanewska,dolnośląskie,54-212,2,51.1228,16.98793
21934,WRO15M,Przy Pepco,Wrocław,wroclaw,Popowicka,dolnośląskie,54-238,134A,51.12848,16.98934
21935,WRO15N,Przy sklepie Grosik,Wrocław,wroclaw,Białowieska,dolnośląskie,54-234,13A,51.12379,16.99299
21936,WRO160M,Na parkingu przed sklepem,Wrocław,wroclaw,Zielińskiego,dolnośląskie,53-533,61,51.09801,17.01929
21937,WRO161M,Przy wjeździe do parkingu podziemnego,Wrocław,wroclaw,Na Ostatnim Groszu,dolnośląskie,54-207,3,51.1254,16.976
21938,WRO162M,Przy budynku Margaret Catering,Wrocław,wroclaw,Zemska,dolnośląskie,54-438,44A,51.11581,16.94904
21939,WRO163M,Przy pawilonie Pierogarni,Wrocław,wroclaw,Rogowska,dolnośląskie,54-440,62A,51.11903,16.95074
21940,WRO165M,Przed sklepem Ponik,Wrocław,wroclaw,Bałtycka,dolnośląskie,51-120,1,51.13831,17.03256
21941,WRO166M,Przy Myjni,Wrocław,wroclaw,Międzyleska,dolnośląskie,50-514,6b,51.08038,17.06862
21942,WRO167M,Przy sklepie Aldi na parkingu,Wrocław,wroclaw,Grabiszyńska,dolnośląskie,53-439,167,51.09887,16.99491
21943,WRO168M,Przy skrzyżowaniu ulic Kurpiów/Grota-Roweckiego,Wrocław,wroclaw,Kurpiów,dolnośląskie,52-214,4,51.05033,17.03043
21944,WRO169M,"Parking przy kamienicy Biurowej , wejście od Podwale lub od Dworcowej",Wrocław,wroclaw,Podwale,dolnośląskie,50-010,62,51.10263,17.03828
21945,WRO16A,Przy markecie POLOmarket,Wrocław,wroclaw,Budziszyńska,dolnośląskie,54-438,107,51.113053,16.95422
21946,WRO16L,Przy markecie Stokrotka,Wrocław,wroclaw,Krzemieniecka,dolnośląskie,54-613,125,51.09737,16.95049
21947,WRO16N,Przy parkingu Spółdzielni Mieszkaniowej Rolbud (zwrócony w stronę parkingu),Wrocław,wroclaw,Wiejska,dolnośląskie,52-437,,51.07829,16.95871
21948,WRO170M,Za centrum handlowym,Wrocław,wroclaw,Swojczycka,dolnośląskie,51-501,69,51.11293,17.1212
21949,WRO171M,Park Handlowy od ulicy Buforowej,Wrocław,wroclaw,Buforowa,dolnośląskie,52-131,100,51.05105,17.05899
21950,WRO173M,Przy aptece,Wrocław,wroclaw,Jarnołtowska,dolnośląskie,54-530,3,51.12056,16.86266
21951,WRO174M,Prywatna posesja,Wrocław,wroclaw,Kamiennogórska,dolnośląskie,54-033,66,51.13561,16.89843
21952,WRO175M,Parking przy budynku biurowym West Link,Wrocław,wroclaw,Szybowcowa,dolnośląskie,54-130,2,51.12535,16.97694
21953,WRO176M,Przy budynku usługowym,Wrocław,wroclaw,Koreańska,dolnośląskie,52-121,2,51.05804,17.08674
21954,WRO178M,Przy sklepie Netto,Wrocław,wroclaw,Stryjska,dolnośląskie,54-614,2,51.09754,16.9521
21955,WRO179M,Przy parkingu,Wrocław,wroclaw,Popowicka,dolnośląskie,54-238,28,51.12586,16.99598
21956,WRO17L,Przy markecie Stokrotka,Wrocław,wroclaw,Wapienna,dolnośląskie,50-518,35,51.08759,17.0418
21957,WRO17N,Przy sklepie Żabka,Wrocław,wroclaw,Krępicka,dolnośląskie,54-018,44,51.15008,16.86212
21958,WRO181M,Przy wjeździe na parking obok myjni,Wrocław,wroclaw,Rogowska,dolnośląskie,54-440,1,51.11837,16.95789
21959,WRO182M,"parking przy hostelu, dziedziniec wewnętrzny",Wrocław,wroclaw,Sienkiewicza,dolnośląskie,50-348,106a,51.11638,17.05987
21960,WRO183M,Na Prywatnej Posesji,Wrocław,wroclaw,Torfowa,dolnośląskie,51-170,22,51.15403,17.07243
21961,WRO184M,Przy klatce mieszkaniowej nr 5,Wrocław,wroclaw,Topolowa,dolnośląskie,52-110,5,51.06939,17.07814
21962,WRO185M,Przy siedzibie Spółdzielni,Wrocław,wroclaw,Kamieńskiego,dolnośląskie,51-124,64a,51.14525,17.0404
21963,WRO186M,Przy wjeździe,Wrocław,wroclaw,Metalowców,dolnośląskie,54-156,25,51.12791,16.95372
21964,WRO187M,Przy lokalu usługowym,Wrocław,wroclaw,Kutrzeby,dolnośląskie,52-213,53,51.0525,17.01925
21965,WRO188M,Wzdłuż płotu na prywatnej posesji,Wrocław,wroclaw,Graniczna,dolnośląskie,54-530,133,51.10957,16.90449
21966,WRO189M,przejście do klatek budynku,Wrocław,wroclaw,Mieszczańska,dolnośląskie,50-201,34,51.11969,17.02392
21967,WRO18L,"Przy Centrum Handlowym TGG, obok stacji paliw",Wrocław,wroclaw,Słubicka,dolnośląskie,53-615,18,51.11809,17.00017
21968,WRO18M,Przy biurowcu,Wrocław,wroclaw,Wałbrzyska,dolnośląskie,52-314,24,51.06423,16.97894
21969,WRO18N,Przy pętli tramwajowej na ternie domu akademickiego AWF,Wrocław,wroclaw,Adama Mickiewicza,dolnośląskie,51-684,98,51.11428,17.10428
21970,WRO190M,Od ulicy Jeżowskiej,Wrocław,wroclaw,Porębska,dolnośląskie,54-048,8,51.14254,16.90422
21971,WRO191M,Przy parkingu,Wrocław,wroclaw,Rychtalska,dolnośląskie,50-304,8,51.12853,17.04662
21972,WRO192M,Na terenie prywatnym,Wrocław,wroclaw,Pawia,dolnośląskie,52-235,25,51.06601,17.03836
21973,WRO194M,Przy sklepie Hermes,Wrocław,wroclaw,Wałbrzyska,dolnośląskie,52-314,41,51.06388,16.97642
21974,WRO195M,Przy Prywatnej Posesji.,Wrocław,wroclaw,Sosnowiecka,dolnośląskie,52-008,1A,51.06976,17.09096
21975,WRO196M,Przy parkingu,Wrocław,wroclaw,Robotnicza,dolnośląskie,53-608,72E,51.111,17.00136
21976,WRO197M,Przy Stacji MOYA express.,Wrocław,wroclaw,Krakowska,dolnośląskie,50-429,150,51.08373,17.07486
21977,WRO198M,Przy firmie Whirlpool,Wrocław,wroclaw,Komorowskiego,dolnośląskie,51-210,6,51.15557,17.11847
21978,WRO199M,Wzdłuż płotu na prywatnej posesji,Wrocław,wroclaw,Uciechowska,dolnośląskie,54-061,dz. 34/2,51.15768,16.91601
21979,WRO19A,Stacja paliw BP,Wrocław,wroclaw,Legnicka,dolnośląskie,54-205,67,51.1271,16.98111
21980,WRO19L,przy warsztacie,Wrocław,wroclaw,Kłokoczycka,dolnośląskie,51-378,177,51.15775,17.09383
21981,WRO19M,Market Dino,Wrocław,wroclaw,Strachocińska,dolnośląskie,51-518,193,51.10009,17.15892
21982,WRO19ML,"Przy Anteny TV SAT, POK Inpost",Wrocław,wroclaw,Boguszowska,dolnośląskie,54-046,82,51.15049,16.89198
21983,WRO200M,Przy wjeździe na posesję,Wrocław,wroclaw,Krzycka,dolnośląskie,53-020,4,51.07461,17.00387
21984,WRO201M,Przy Gabinecie Dentystycznym,Wrocław,wroclaw,Orzechowa,dolnośląskie,50-567,18,51.08141,17.04223
21985,WRO202M,Na prywatnej posesji,Wrocław,wroclaw,Chorwacka,dolnośląskie,51-112,31,51.13669,17.02579
21986,WRO203M,Przy Osiedlu.,Wrocław,wroclaw,Wietnamska,dolnośląskie,52-110,3,51.06215,17.08412
21987,WRO204M,Parking obok bloku,Wrocław,wroclaw,Wojanowska,dolnośląskie,54-063,36,51.15416,16.89691
21988,WRO205M,Parking przed blokiem,Wrocław,wroclaw,Dolnobrzeska,dolnośląskie,54-072,44,51.15206,16.86378
21989,WRO206M,Po prawej stronie od wejścia do Żabki.,Wrocław,wroclaw,Maślicka,dolnośląskie,54-107,104,51.1533,16.939
21990,WRO207M,Na skrzyżowaniu Rapackiego i Wawrzyniaka,Wrocław,wroclaw,Wawrzyniaka,dolnośląskie,53-021,23,51.07558,17.00067
21991,WRO208M,Przy Osiedlu.,Wrocław,wroclaw,Syjamska,dolnośląskie,52-113,4,51.06565,17.08137
21992,WRO209M,Przy Hurtowni Ewax.,Wrocław,wroclaw,Grota-Roweckiego,dolnośląskie,52-232,116,51.0559,17.03328
21993,WRO20M,Przy sklepie Kiosk,Wrocław,wroclaw,Jastrzębia,dolnośląskie,53-148,6,51.08416,17.00939
21994,WRO20N,Przy Hali Targowej Blaszak od strony pętli autobusowej,Wrocław,wroclaw,Poleska,dolnośląskie,51-354,50,51.14241,17.12779
21995,WRO210M,Obok sklepu Delikatesy Centrum,Wrocław,wroclaw,Tęczowa,dolnośląskie,53-603,30,51.10632,17.01791
21996,WRO211M,Przy wjeździe na targ od ul. Żubrzej,Wrocław,wroclaw,Niedźwiedzia,dolnośląskie,54-232,1,51.12145,16.99566
21997,WRO212M,W linii ogrodzenia,Wrocław,wroclaw,Petrażyckiego,dolnośląskie,52-437,66,51.07357,16.9659
21998,WRO213M,Wzdłuż płotu,Wrocław,wroclaw,Koszalińska,dolnośląskie,54-316,9,51.12527,16.95188
21999,WRO215M,trawnik przed budynkiem,Wrocław,wroclaw,Na Szańcach,dolnośląskie,50-327,15,51.1189,17.04517
22000,WRO216M,Przy sklepie spożywczym,Wrocław,wroclaw,Kukułcza,dolnośląskie,51-419,8,51.13339,17.08176
22001,WRO218M,Obok sklepu z warzywami,Wrocław,wroclaw,Kwiska,dolnośląskie,54-210,16,51.12325,16.98248
22002,WRO219M,Stacja Paliw Omega,Wrocław,wroclaw,Bardzka,dolnośląskie,50-517,6,51.08353,17.04988
22003,WRO21A,Przy centrum handlowym,Wrocław,wroclaw,Długa,dolnośląskie,53-633,37,51.12138,17.01477
22004,WRO21M,Przy szkole Tenisa,Wrocław,wroclaw,Kozanowska,dolnośląskie,54-152,69,51.13939,16.97353
22005,WRO21N,Przy sklepie spożywczym,Wrocław,wroclaw,Racławicka,dolnośląskie,53-149,37,51.08331,17.00491
22006,WRO220M,Przy placu zabaw,Wrocław,wroclaw,Kasztelańska,dolnośląskie,51-200,21,51.15651,17.13465
22007,WRO222M,Przy myjni ręcznej,Wrocław,wroclaw,Plac Hirszfelda,dolnośląskie,53-413,14M,51.09511,17.01566
22008,WRO223M,Przy markecie Aldi,Wrocław,wroclaw,Obornicka,dolnośląskie,51-114,72,51.13953,17.02674
22009,WRO224M,Przy budynku nr 52,Wrocław,wroclaw,Szkocka,dolnośląskie,54-402,52,51.10852,16.95919
22010,WRO225M,Przy Foodtruckach,Wrocław,wroclaw,Pawia,dolnośląskie,52-235,44,51.06362,17.0375
22011,WRO226M,Obok sklepu Delikatesy Centrum,Wrocław,wroclaw,Legnicka,dolnośląskie,53-673,23/25,51.113337,17.014496
22012,WRO227M,Parking obok bloku,Wrocław,wroclaw,Prężycka,dolnośląskie,54-072,66,51.15291,16.86441
22013,WRO228M,Boczna ściana sklepu Jomo,Wrocław,wroclaw,Wojrowicka,dolnośląskie,52-434,2,51.11476,16.96124
22014,WRO229M,Przy Starterze I,Wrocław,wroclaw,Wybrzeże L. Pasteura,dolnośląskie,50-378,18,51.11387,17.07086
22015,WRO22A,Przy markecie Kaufland,Wrocław,wroclaw,Bardzka,dolnośląskie,50-517,1C,51.08468,17.04674
22016,WRO22M,Na parkingu sklepu Lidl,Wrocław,wroclaw,Grabiszyńska,dolnośląskie,53-241,253,51.09611,16.98341
22017,WRO22N,Przy wjeździe na parking osiedlowy,Wrocław,wroclaw,Gajowicka,dolnośląskie,53-323,138,51.08923,17.00725
22018,WRO230M,Przy wejściu do marketu Aldi,Wrocław,wroclaw,Szybowcowa,dolnośląskie,54-130,7,51.12772,16.97493
22019,WRO233M,Wzdłuż płotu,Wrocław,wroclaw,Modra,dolnośląskie,54-151,34A,51.13711,16.97012
22020,WRO234M,boczna ściana sklepu po prawej stronie,Wrocław,wroclaw,Walerego Sławka,dolnośląskie,52-007,11,51.10866,17.09421
22021,WRO235M,Przy sklepie Aldi,Wrocław,wroclaw,Zwycięska,dolnośląskie,53-033,7,51.06112,17.00071
22022,WRO236M,Przejście budynku,Wrocław,wroclaw,Głogowska,dolnośląskie,53-621,6,51.1165,17.00248
22023,WRO237M,przy elewacji sklepu od Świętego Wincentego,Wrocław,wroclaw,Świętego Wincentego,dolnośląskie,50-253,1,51.12227,17.03119
22024,WRO238M,"Spółdzielnia PDK, w płocie",Wrocław,wroclaw,Dworcowa,dolnośląskie,50-441,17,51.10079,17.03928
22025,WRO239M,Przy wjeździe na osiedle,Wrocław,wroclaw,Obornicka,dolnośląskie,51-113,24,51.1355,17.03345
22026,WRO23A,Przy Centrum Handlowym Gaj,Wrocław,wroclaw,Świeradowska,dolnośląskie,50-559,70,51.0775,17.04745
22027,WRO23M,Przy sklepie Żabka,Wrocław,wroclaw,Królewska,dolnośląskie,51-200,25A,51.15794,17.13123
22028,WRO23N,Przy skrzyżowaniu ulic,Wrocław,wroclaw,Jantarowa,dolnośląskie,53-330,18,51.09266,17.01292
22029,WRO240M,Przy Restauracji MIKI.,Wrocław,wroclaw,Włościańska,dolnośląskie,51-514,65,51.10407,17.15064
22030,WRO241M,Na skrzyżowaniu ulic Strachocińska/Narciarska,Wrocław,wroclaw,Strachocińska,dolnośląskie,51-511,136,51.10431,17.15239
22031,WRO242M,Przy sklepie Żabka.,Wrocław,wroclaw,Kowalska,dolnośląskie,51-424,81A,51.13349,17.10361
22032,WRO243M,Obok Spółdzielni Mieszkaniowej Rolbud (zwrócony tyłem do parkingu),Wrocław,wroclaw,Wiejska,dolnośląskie,52-437,,51.07826,16.95876
22033,WRO245M,Przy ścianie budynku,Wrocław,wroclaw,Średzka,dolnośląskie,54-017,16B,51.14579,16.86975
22034,WRO246M,Parking obok budynku,Wrocław,wroclaw,Jurija Gagarina,dolnośląskie,54-620,110,51.0943,16.93416
22035,WRO247M,przy wjeżdzie na teren po prawej stronie,Wrocław,wroclaw,Ołtaszyńska,dolnośląskie,52-200,51,51.06488,17.00939
22036,WRO248M,Na tyłach sklepu,Wrocław,wroclaw,Kowalska,dolnośląskie,51-424,72,51.13432,17.10183
22037,WRO249M,obok wjazdu na posesję,Wrocław,wroclaw,Przedświt,dolnośląskie,54-618,9,51.09544,16.94469
22038,WRO24A,Przy Centrum Handlowym Tęcza,Wrocław,wroclaw,Jerzego Bajana,dolnośląskie,54-129,1,51.13026,16.96514
22039,WRO24M,Po prawej stronie od wejścia do marketu,Wrocław,wroclaw,Karczemna,dolnośląskie,54-067,1,51.173,16.914
22040,WRO24N,Przy parkingu spółdzielni SM Gądów,Wrocław,wroclaw,Na Ostatnim Groszu,dolnośląskie,54-207,24/26,51.12355,16.97772
22041,WRO251M,Na działce prywatnej,Wrocław,wroclaw,Szewczenki,dolnośląskie,51-348,2,51.14153,17.1249
22042,WRO252M,Na parkingu osiedla,Wrocław,wroclaw,Kasprowicza,dolnośląskie,51-118,1,51.13576,17.03796
22043,WRO253M,Parking przed Żabką,Wrocław,wroclaw,Stabłowicka,dolnośląskie,54-066,152,51.17192,16.90286
22044,WRO254M,Na rogu ulic Zwiadowców/Unruga,Wrocław,wroclaw,Zwiadowców,dolnośląskie,52-207,14,51.05512,17.0185
22045,WRO255M,Przy wjeździe na parking osiedlowy,Wrocław,wroclaw,Kamieńskiego,dolnośląskie,51-124,144,51.1491,17.04276
22046,WRO256M,W płocie,Wrocław,wroclaw,Strachocińska,dolnośląskie,51-511,83,51.1064,17.14334
22048,WRO258M,Przychodnia Weterynaryjna,Wrocław,wroclaw,Stabłowicka,dolnośląskie,54-058,56,51.15685,16.8916
22049,WRO259M,Narożnik ul. Paulińskiej i Pl. Świętego Macieja,Wrocław,wroclaw,Pl. Świętego Macieja,dolnośląskie,50-244,13-15,51.12038,17.03503
22050,WRO25A,Przy sklepie Społem Południe,Wrocław,wroclaw,Inżynierska,dolnośląskie,53-228,19,51.09499,16.99157
22051,WRO25N,Stacja paliw Avia,Wrocław,wroclaw,Gazowa,dolnośląskie,50-513,3,51.07772,17.06951
22053,WRO261M,Na skrzyżowaniu ulic Parnickiego/Obornicka,Wrocław,wroclaw,Parnickiego,dolnośląskie,51-116,1,51.13909,17.02884
22054,WRO262M,Przy drukarni,Wrocław,wroclaw,Wędkarzy,dolnośląskie,51-050,18,51.16741,16.96396
22055,WRO263M,"Przy wjeździe na parking strzeżony, za WRO83M",Wrocław,wroclaw,Rychtalska,dolnośląskie,50-304,7,51.12899,17.04753
22056,WRO264M,Przy parkingu od strony stacji paliw,Wrocław,wroclaw,Zakładowa,dolnośląskie,50-231,2/4,51.13059,17.03943
22057,WRO265M,Przy pasażu handlowym,Wrocław,wroclaw,Poleska,dolnośląskie,51-354,48,51.14296,17.12753
22058,WRO266M,Na szczycie bloku od ulicy Litewskiej,Wrocław,wroclaw,Żmudzka,dolnośląskie,51-354,23,51.14323,17.13975
22059,WRO267M,Przy klatce schodowej nr 8,Wrocław,wroclaw,Sycowska,dolnośląskie,51-312,8,51.14738,17.11219
22060,WRO268M,Na szczycie bloku przy klatce schodowej nr 107,Wrocław,wroclaw,Kiełczowska,dolnośląskie,51-315,107,51.14441,17.13629
22061,WRO269M,Przy klatce schodowej nr 37,Wrocław,wroclaw,Inflancka,dolnośląskie,51-317,37,51.1435,17.13104
22062,WRO26A,Przy sklepie Społem Południe,Wrocław,wroclaw,Wełniana,dolnośląskie,54-059,31,51.15851,16.89723
22063,WRO26M,Na parkingu,Wrocław,wroclaw,Mińska,dolnośląskie,54-610,50,51.10314,16.94478
22064,WRO26N,Przy Parku Handlowym N-Park,Wrocław,wroclaw,Gagarina,dolnośląskie,54-620,27,51.09472,16.93303
22065,WRO270M,Na szczycie bloku,Wrocław,wroclaw,Litewska,dolnośląskie,51-354,34,51.14321,17.13355
22066,WRO271M,Przy placu zabaw,Wrocław,wroclaw,Sycowska,dolnośląskie,51-319,16D,51.14618,17.11114
22067,WRO272M,Przy Bloku 1-3,Wrocław,wroclaw,Inflancka,dolnośląskie,51-354,1-3,51.14587,17.1313
22068,WRO273M,Od ulicy Kamiennej przy chodniku,Wrocław,wroclaw,Drukarska,dolnośląskie,53-311,31,51.08985,17.01981
22069,WRO274M,Business Park Długosza,Wrocław,wroclaw,Długosza,dolnośląskie,51-162,48-60,51.13532,17.06558
22070,WRO275M,W płocie parkingu,Wrocław,wroclaw,Wielkopolska,dolnośląskie,54-027,72,51.14364,16.87811
22071,WRO276M,Przy wejściu na podwórze,Wrocław,wroclaw,Bieńkowskiego,dolnośląskie,54-115,22,51.13519,16.92449
22072,WRO277M,Przy budynku mieszkalnym,Wrocław,wroclaw,Legnicka,dolnośląskie,54-204,60c,51.12109,16.9894
22073,WRO278M,Przy barze Kęs,Wrocław,wroclaw,Życzliwa,dolnośląskie,52-443,13,51.06764,16.9879
22074,WRO279M,Na przeciwko przedszkola,Wrocław,wroclaw,Olbrachtowska,dolnośląskie,54-063,44-48,51.15327,16.90835
22075,WRO27A,Przy Nobilis Business House,Wrocław,wroclaw,Skłodowskiej-Curie,dolnośląskie,50-381,12,51.1131,17.0571
22076,WRO27M,Przy parkingu za blokami,Wrocław,wroclaw,Dolnobrzeska,dolnośląskie,54-072,24,51.14942,16.86577
22077,WRO27N,Stacja paliw Circle K,Wrocław,wroclaw,Romana Dmowskiego,dolnośląskie,50-203,5,51.11738,17.02146
22078,WRO280M,"Na parkingu za hotelem, od strony ulicy Gwiaździstej",Wrocław,wroclaw,Powstańców Śląskich,dolnośląskie,53-332,7,51.09852,17.0239
22079,WRO281M,"Przy sklepie Stokrotka, tyłem do parkingu.",Wrocław,wroclaw,Sielska,dolnośląskie,54-144,3,51.14021,16.96273
22080,WRO283M,Parking przed kościołem św. Stanisława Kostki (od ulicy Przestrzennej),Wrocław,wroclaw,Przestrzenna,dolnośląskie,50-501,50,51.08924,17.04294
22081,WRO284M,Przy parkingu samochodowym,Wrocław,wroclaw,Gajowicka,dolnośląskie,53-421,95,51.09525,17.0104
22082,WRO285M,Przy wjeździe na osiedle,Wrocław,wroclaw,Zielna,dolnośląskie,51-313,10,51.14496,17.1102
22083,WRO286M,Na szczycie bloku od ulicy Pretficza,Wrocław,wroclaw,Gajowicka,dolnośląskie,53-407,131,51.09168,17.00758
22084,WRO287M,Przy Przystanku Autobusowym,Wrocław,wroclaw,Kamieńskiego,dolnośląskie,51-180,268,51.16306,17.04587
22085,WRO289M,Przy przedszkolu Łobuziaki,Wrocław,wroclaw,Maślicka,dolnośląskie,54-107,148,51.15637,16.93521
22086,WRO28M,Przy bloku od ulicy Zegadłowicza,Wrocław,wroclaw,Trzebnicka,dolnośląskie,50-310,76D,51.12906,17.03482
22087,WRO28N,Przy sklepie Społem,Wrocław,wroclaw,Solskiego,dolnośląskie,52-416,50,51.08291,16.96966
22088,WRO290M,Parking przy Wspólnocie Mieszkaniowej,Wrocław,wroclaw,Grota-Roweckiego,dolnośląskie,52-232,123,51.05648,17.03222
22089,WRO291M,Obok schodów do sklepu Rabat,Wrocław,wroclaw,Ścinawska,dolnośląskie,53-641,20,51.11766,17.01041
22090,WRO292M,Na parkingu parku handlowego,Wrocław,wroclaw,Północna,dolnośląskie,54-105,1,51.15779,16.93439
22091,WRO293M,Na osiedlu od ulicy Poleskiej,Wrocław,wroclaw,Poleska,dolnośląskie,51-317,1,51.14625,17.12828
22092,WRO294M,W narożniku parkingu,Wrocław,wroclaw,Kolista,dolnośląskie,54-152,20A,51.13352,16.97252
22093,WRO295M,Przy Lotniczych Zakładach Naukowych,Wrocław,wroclaw,Kiełczowska,dolnośląskie,51-315,43,51.14647,17.12271
22094,WRO296M,Przy wjeździe na teren składu budowlanego,Wrocław,wroclaw,Sołtysowicka,dolnośląskie,51-168,25B,51.14332,17.07121
22095,WRO297M,Przy wjeździe na teren budynku usługowo - handlowego,Wrocław,wroclaw,Wojanowska,dolnośląskie,54-054,5,51.15464,16.89897
22096,WRO298M,Wzdłuż płotu parafii,Wrocław,wroclaw,Młodych Techników,dolnośląskie,53-647,17,51.11505,17.01417
22097,WRO299M,Przy sklepie Lidl,Wrocław,wroclaw,Piołunowa,dolnośląskie,54-530,18,51.1279,16.87957
22098,WRO29A,Stacja paliw AMIC ENERGY,Wrocław,wroclaw,Armii Krajowej,dolnośląskie,50-541,1,51.08267,17.03611
22099,WRO29M,Przy parkingu za budynkiem,Wrocław,wroclaw,Krzywoustego,dolnośląskie,51-310,285,51.14542,17.10942
22100,WRO29N,Przy markecie Lewiatan,Wrocław,wroclaw,Borowska,dolnośląskie,50-558,214,51.07468,17.03295
22101,WRO300M,Przy wjeździe na parking hotelu,Wrocław,wroclaw,Ślężna,dolnośląskie,53-302,26,51.09344,17.03158
22102,WRO301M,Na skrzyżowaniu ulic Sernicka/Paczkowska,Wrocław,wroclaw,Sernicka,dolnośląskie,50-503,1,51.08918,17.04754
22103,WRO302M,Przy bramie wjazdowej,Wrocław,wroclaw,Osobowicka,dolnośląskie,51-008,70,51.13546,16.99924
22104,WRO304M,Po lewej stronie budynku,Wrocław,wroclaw,Bacciarellego,dolnośląskie,51-649,6,51.10578,17.11115
22105,WRO305M,Przy posesji prywatnej,Wrocław,wroclaw,Wodzisławska,dolnośląskie,52-017,4,51.08068,17.08759
22106,WRO306M,Przy miejscach parkingowych z tyłu bloku,Wrocław,wroclaw,Wojanowska,dolnośląskie,54-050,82,51.15324,16.89967
22107,WRO307M,Boczna ściana sklepu spożywczego,Wrocław,wroclaw,Maślicka,dolnośląskie,54-142,166,51.15736,16.93215
22108,WRO308M,Obok parkingu Park & Ride,Wrocław,wroclaw,Lazurowa,dolnośląskie,54-044,dz. 342/3,51.1448822899,16.8895214412
22109,WRO309M,Od strony ulicy Parandowskiego,Wrocław,wroclaw,Stanisława Dygata,dolnośląskie,54-622,1,51.10241,16.95141
22110,WRO30A,Przy Netto,Wrocław,wroclaw,Sołtysowicka,dolnośląskie,51-168,17,51.14036,17.07173
22111,WRO30M,Przy wjeździe na parking,Wrocław,wroclaw,Bytomska,dolnośląskie,52-024,1,51.07724,17.08309
22112,WRO30N,"Przy markecie E.Leclerc, po lewej stronie od wejścia",Wrocław,wroclaw,Zakładowa,dolnośląskie,50-231,2/4,51.13021,17.03976
22113,WRO310M,Przy Netto,Wrocław,wroclaw,Kiełczowska,dolnośląskie,51-315,78,51.14574,17.14094
22114,WRO311M,Na rogu Milickiej/Rudawskiej,Wrocław,wroclaw,Milicka,dolnośląskie,51-127,39,51.15198,17.03646
22115,WRO314M,Przy wjeździe na teren Politechniki,Wrocław,wroclaw,Wittiga,dolnośląskie,51-628,6,51.10338,17.08408
22116,WRO315M,Przy budynku T-22,Wrocław,wroclaw,Wróblewskiego,dolnośląskie,51-657,25,51.1041,17.08663
22117,WRO316M,Obok sklepu Żabka,Wrocław,wroclaw,Białowieska,dolnośląskie,54-234,66,51.12561,16.99332
22118,WRO31A,Przy sklepie Rabat,Wrocław,wroclaw,Hermanowska,dolnośląskie,54-314,43,51.12338,16.95253
22119,WRO31M,Przy bloku - klatka numer 19,Wrocław,wroclaw,Falzmanna,dolnośląskie,51-128,19,51.15554,17.04188
22120,WRO31N,Przy markecie Netto,Wrocław,wroclaw,Kiełczowska,dolnośląskie,51-315,42,51.14732,17.12326
22121,WRO32A,Przy sklepie Astech,Wrocław,wroclaw,Żernicka,dolnośląskie,54-510,211-213,51.12326,16.9247
22122,WRO32M,Przy bloku,Wrocław,wroclaw,Przybyszewskiego,dolnośląskie,51-148,112,51.14171,17.06285
22123,WRO32N,Przy markecie Kaufland,Wrocław,wroclaw,Legnicka,dolnośląskie,54-204,62A,51.12254,16.98973
22124,WRO33A,"CH Wroclavia, niebieska strefa parkingu podziemnego, poziom -1",Wrocław,wroclaw,Sucha,dolnośląskie,50-525,1,51.09646,17.03438
22125,WRO33M,"Na osiedlu, przy klatce numer 12",Wrocław,wroclaw,Wileńska,dolnośląskie,52-113,12,51.06623,17.08105
22126,WRO33N,Fryzjer dla psów La Pompon,Wrocław,wroclaw,Królewska,dolnośląskie,51-210,40,51.1599,17.1334
22127,WRO34A,Przy sklepie Społem Południe,Wrocław,wroclaw,Jemiołowa,dolnośląskie,53-447,50/54,51.09545,17.00896
22128,WRO34N,Parking między budynkami G i H,Wrocław,wroclaw,Legnicka,dolnośląskie,54-202,48,51.11678,16.9974
22129,WRO35A,Przy myjni bezdotykowej,Wrocław,wroclaw,Mysłowicka,dolnośląskie,51-506,47,51.1099,17.13804
22130,WRO35M,Market Dino,Wrocław,wroclaw,Poświęcka,dolnośląskie,51-128,9,51.15649,17.03267
22131,WRO35N,Po prawej stronie sklepu Lewiatan,Wrocław,wroclaw,Bacciarellego,dolnośląskie,51-663,6,51.1057,17.11148
22132,WRO36A,Po prawej stronie od wejścia do Sklepu Monopolowego Stalowa 70,Wrocław,wroclaw,Stalowa,dolnośląskie,53-425,70,51.1009,17.0003
22133,WRO36M,Market Dino,Wrocław,wroclaw,Krzywoustego,dolnośląskie,51-166,30,51.13806,17.07263
22134,WRO36N,Stacja paliw AMIC ENERGY,Wrocław,wroclaw,Sycowska,dolnośląskie,51-319,70,51.14653,17.10603
22135,WRO37A,Przy sklepie Żabka po prawej stronie od wejścia,Wrocław,wroclaw,Semaforowa,dolnośląskie,52-115,26,51.0606,17.0798
22136,WRO37M,Na parkingu za galerią N-park,Wrocław,wroclaw,Maślicka,dolnośląskie,54-104,216,51.15559,16.92046
22137,WRO37N,Przy wjeździe na teren prywatnej posesji,Wrocław,wroclaw,Swojczycka,dolnośląskie,51-502,82,51.11363,17.12156
22138,WRO38A,Po prawej stronie parkingu przy budynku firmy Artel,Wrocław,wroclaw,Nenckiego,dolnośląskie,52-212,138,51.05615,17.02445
22139,WRO38M,Przy Pasażu Grunwaldzkim,Wrocław,wroclaw,Plac Grunwaldzki,dolnośląskie,50-363,22,51.11354,17.0597
22140,WRO38N,"Przy sklepie Netto, niedaleko wjazdu na parking",Wrocław,wroclaw,Nowodworska,dolnośląskie,54-433,17A,51.11516,16.9656
22141,WRO39A,Przy sklepie zoologicznym AnimaleSano (od ul. Inżynierskiej).,Wrocław,wroclaw,Grabiszyńska,dolnośląskie,53-235,238-240,51.09408,16.98156
22142,WRO39M,Na parkingu Aquaparku,Wrocław,wroclaw,Borowska,dolnośląskie,50-529,99,51.0897,17.03285
22143,WRO40A,Po prawej stronie od wejścia do sklepu Żabka,Wrocław,wroclaw,Górnicza,dolnośląskie,54-136,51A,51.1369,16.9581
22144,WRO40M,Przy sklepie Żabka,Wrocław,wroclaw,Redycka,dolnośląskie,51-169,8,51.14944,17.07394
22145,WRO40N,Na stacji paliw,Wrocław,wroclaw,Krzemieniecka,dolnośląskie,54-613,46A,51.0955,16.9621
22146,WRO41A,Przy sklepie Aldi,Wrocław,wroclaw,Kościuszki,dolnośląskie,50-440,133A,51.09894,17.04793
22147,WRO41M,Przy sklepie Aldi,Wrocław,wroclaw,Średzka,dolnośląskie,54-001,41,51.1455,16.86599
22148,WRO41N,Przy stacji Circle K,Wrocław,wroclaw,al. Karkonoska,dolnośląskie,53-015,52,51.0625,17.00134
22149,WRO42M,Na terenie Spółdzielni Mieszkaniowej im. Prusa,Wrocław,wroclaw,Reja,dolnośląskie,50-354,46,51.11776,17.05755
22150,WRO42N,Po lewej stronie od wejścia do supermarketu Kaufland,Wrocław,wroclaw,Jana Długosza,dolnośląskie,51-162,74,51.13686,17.0671
22151,WRO43A,Przy wjeździe do parkingu podziemnego,Wrocław,wroclaw,Sienkiewicza,dolnośląskie,50-335,22,51.11811,17.04686
22152,WRO43M,Na terenie Spółdzielni Mieszkaniowej im. Prusa,Wrocław,wroclaw,Jaracza,dolnośląskie,50-305,40,51.12446,17.05684
22153,WRO43N,Po prawej stronie od wejścia do sklepu Castorama,Wrocław,wroclaw,Graniczna,dolnośląskie,54-610,2,51.10578,16.94417
22154,WRO45M,Przy Parku Handlowym (od strony ulicy Vivaldiego),Wrocław,wroclaw,Buforowa,dolnośląskie,52-131,100,51.05145,17.05911
22155,WRO45N,Przy wejściu do supermarketu Spar,Wrocław,wroclaw,Przyjaźni,dolnośląskie,53-030,2,51.06807,17.00317
22156,WRO46M,Przy budynku przedszkola,Wrocław,wroclaw,Rajska,dolnośląskie,54-028,69,51.14142,16.89781
22157,WRO47M,Przed sklepem ToMa,Wrocław,wroclaw,Krzycka,dolnośląskie,53-019,1,51.07461,17.00493
22158,WRO48M,Na terenie myjni samoobsługowej,Wrocław,wroclaw,Rumiankowa,dolnośląskie,54-512,1,51.12223,16.93134
22159,WRO49M,Przy serwisie samochodowym,Wrocław,wroclaw,Kolista,dolnośląskie,54-152,14K,51.13364,16.97437
22160,WRO50M,Przy sklepie Lidl,Wrocław,wroclaw,Muchoborska,dolnośląskie,54-424,17,51.11034,16.97049
22161,WRO51M,Przy sklepie Lidl,Wrocław,wroclaw,Obornicka,dolnośląskie,51-113,68,51.13768,17.02593
22162,WRO52M,Przy parkingu sklepu Lidl,Wrocław,wroclaw,Kępińska,dolnośląskie,51-132,1,51.14467,17.03248
22163,WRO53M,Przy parkingu sklepu Lidl,Wrocław,wroclaw,Długosza,dolnośląskie,51-162,34,51.13411,17.06064
22164,WRO54M,Przy sklepie Lidl,Wrocław,wroclaw,Królewiecka,dolnośląskie,54-117,27,51.14678,16.94125
22165,WRO55M,Przy Galerii Ferio Gaj,Wrocław,wroclaw,ŚWIERADOWSKA,dolnośląskie,50-559,51/57,51.0756,17.04278
22166,WRO56M,Przy prywatnej posesji.,Wrocław,wroclaw,Grabowa,dolnośląskie,54-115,22,51.1384,16.921
22167,WRO57M,Na parkingu Lidla,Wrocław,wroclaw,Powstańców Śląskich,dolnośląskie,53-140,211A,51.077,17.00658
22168,WRO58M,Przy serwisie ULDA,Wrocław,wroclaw,Kowalska,dolnośląskie,51-424,112,51.13258,17.10981
22169,WRO59M,Po lewej stronie od wjazdu.,Wrocław,wroclaw,Średzka,dolnośląskie,54-017,40,51.1464,16.8639
22170,WRO60M,Przy sklepie Lidl,Wrocław,wroclaw,Borowska,dolnośląskie,50-552,134,51.08275,17.03516
22171,WRO61M,Przy sklepie Lidl,Wrocław,wroclaw,Bierutowska,dolnośląskie,51-317,4-6,51.14839,17.11725
22172,WRO62M,Przy sklepie Lidl,Wrocław,wroclaw,Daktylowa,dolnośląskie,54-054,8,51.15499,16.89648
22173,WRO63M,Przy sklepie Lidl,Wrocław,wroclaw,Parafialna,dolnośląskie,52-223,60,51.05978,17.02481
22174,WRO64M,Przy sklepie Lidl,Wrocław,wroclaw,Hubska,dolnośląskie,50-502,84-86,51.08865,17.04735
22175,WRO65M,Przy sklepie Lidl,Wrocław,wroclaw,Gubińska,dolnośląskie,54-434,4,51.11273,16.9579
22176,WRO67M,Na terenie Spółdzielni Mieszkaniowej Huby,Wrocław,wroclaw,Ciepła,dolnośląskie,50-521,22,51.09172,17.03565
22177,WRO68M,Przy parkingu na ulicy Modelskiego,Wrocław,wroclaw,Modelskiego,dolnośląskie,54-702,1,51.16301,16.87447
22178,WRO69M,Naprzeciwko Apteki Silesia,Wrocław,wroclaw,Dworcowa,dolnośląskie,50-456,33,51.09961,17.03887
22179,WRO70M,Na terenie Myjni,Wrocław,wroclaw,Międzyleska 6b,dolnośląskie,50-514,6B,51.08025,17.06856
22180,WRO71M,Przy Myjni,Wrocław,wroclaw,Pełczyńska,dolnośląskie,51-180,113,51.1743,16.99432
22181,WRO72M,Za sklepem Lidl,Wrocław,wroclaw,Wilanowska,dolnośląskie,51-206,4,51.15434,17.12835
22182,WRO73M,Przy Lidlu,Wrocław,wroclaw,Braniborska,dolnośląskie,53-680,82,51.11165,17.00748
22183,WRO74M,Na parkingu przy Lidlu,Wrocław,wroclaw,Balonowa,dolnośląskie,54-129,30,51.1221,16.9612
22184,WRO75M,Przy Lidlu,Wrocław,wroclaw,Gagarina,dolnośląskie,54-620,21,51.0956,16.93337
22185,WRO76M,Po lewej stronie od wejścia.,Wrocław,wroclaw,Dokerska 2a,dolnośląskie,54-142,2A,51.1378,16.9656
22186,WRO77M,Przy Arkadach Wrocławskich,Wrocław,wroclaw,Powstańców Śląskich,dolnośląskie,53-332,2-4,51.0992,17.02758
22187,WRO79M,Przy Circle K,Wrocław,wroclaw,Sucha,dolnośląskie,50-086,15C,51.09614,17.0397
22188,WRO80M,Przy wejściu do Sky Tower,Wrocław,wroclaw,Powstańców Śląskich,dolnośląskie,53-332,95,51.09523,17.01939
22189,WRO81M,Przed wjazdem po prawej stronie.,Wrocław,wroclaw,Starogajowa,dolnośląskie,54-047,6,51.1437,16.8987
22190,WRO82M,Przy siedzibie S.M. Wojewodzianka,Wrocław,wroclaw,Drukarska,dolnośląskie,53-312,38,51.08873,17.02059
22191,WRO83M,"W lini płotu, obok wjazdu na teren parkingu",Wrocław,wroclaw,Rychtalska,dolnośląskie,50-304,7,51.12899,17.04753
22192,WRO85M,Przy wiatach,Wrocław,wroclaw,Sarnia,dolnośląskie,52-129,4,51.04961,17.05884
22193,WRO86M,Przy parkingu firmy Dan-mark,Wrocław,wroclaw,Stabłowicka,dolnośląskie,54-062,118,51.16738,16.89862
22194,WRO87M,Przy sklepie Aldi,Wrocław,wroclaw,Długosza,dolnośląskie,51-162,14,51.13312,17.0601
22195,WRO88M,W uliczce pomiędzy kamienicami,Wrocław,wroclaw,Plac Teatralny,dolnośląskie,50-051,3,51.10534,17.0324
22196,WRO89M,Przy wjeździe na parking TBS,Wrocław,wroclaw,Afgańska,dolnośląskie,52-117,3,51.06209,17.08242
22197,WRO90M,Przy firmie Future World,Wrocław,wroclaw,Ożynowa,dolnośląskie,53-009,51B,51.06509,17.01099
22198,WRO911,Market Dino,Wrocław,wroclaw,Zielińskiego,dolnośląskie,53-534,22A,51.0997,17.02386
22199,WRO91M,"Przy przystanku autobusowym, obok wjazdu na teren UEW",Wrocław,wroclaw,Kamienna,dolnośląskie,53-307,61/63,51.08946,17.02713
22200,WRO92M,"Obok budynku ""E"" Uniwersytetu Ekonomicznego, od strony ul. Komandorskiej",Wrocław,wroclaw,Komandorska,dolnośląskie,53-345,118/120,51.09149,17.02485
22201,WRO93M,Przy sklepie odzieżowym.,Wrocław,wroclaw,Hubska,dolnośląskie,50-502,80,51.08933,17.04531
22202,WRO94M,Przy budynku od ulicy Pięknej,Wrocław,wroclaw,Piękna,dolnośląskie,50-506,56,51.08528,17.05667
22203,WRO95M,Przy budynku mieszkaniowym,Wrocław,wroclaw,Wielka,dolnośląskie,50-529,33,51.09283,17.02136
22204,WRO96M,Z tyłu budynku,Wrocław,wroclaw,Brzoskwiniowa,dolnośląskie,50-539,8,51.08088,17.03851
22205,WRO97M,Przy wjeździe,Wrocław,wroclaw,Pęgowska,dolnośląskie,51-180,6,51.19636,16.97794
22206,WRO986,Przy Centrum Handlowym Młyn,Wrocław,wroclaw,Krzywoustego,dolnośląskie,51-421,110,51.14081,17.08432
22207,WRO98M,Za stacją Lotos,Wrocław,wroclaw,Aleja Karkonoska,dolnośląskie,53-015,49,51.06273,16.99796
22208,WRO99M,Przy drodze,Wrocław,wroclaw,Opolska,dolnośląskie,52-010,15E,51.07974,17.07997
